{"type":"FeatureCollection", "features": [
{"type":"Feature","geometry":{"type":"Polygon","coordinates":[[[-87.639765,41.750713],[-87.639778,41.751096],[-87.642839,41.75105],[-87.642773,41.748847],[-87.646421,41.74879],[-87.646316,41.74515],[-87.645104,41.745167],[-87.645053,41.743348],[-87.643837,41.743366],[-87.643629,41.736719],[-87.642438,41.737363],[-87.642425,41.736774],[-87.637586,41.736803],[-87.637446,41.732596],[-87.63623,41.732604],[-87.636183,41.730845],[-87.635021,41.730863],[-87.63494,41.729994],[-87.624053,41.730146],[-87.623687,41.719815],[-87.622738,41.716546],[-87.622835,41.715869],[-87.623274,41.71497],[-87.621392,41.713759],[-87.620235,41.713386],[-87.620143,41.71269],[-87.618774,41.712712],[-87.618692,41.709069],[-87.61382,41.709146],[-87.613773,41.707323],[-87.612556,41.707341],[-87.612505,41.705516],[-87.610066,41.705551],[-87.610091,41.706463],[-87.607678,41.706499],[-87.607476,41.707418],[-87.586057,41.707773],[-87.585156,41.709542],[-87.584877,41.711142],[-87.585133,41.722347],[-87.575361,41.722477],[-87.575541,41.729769],[-87.572503,41.72981],[-87.572596,41.733459],[-87.56592,41.73355],[-87.566003,41.737201],[-87.565707,41.737206],[-87.566034,41.737441],[-87.566103,41.742653],[-87.565493,41.742661],[-87.565527,41.744477],[-87.567348,41.744454],[-87.567355,41.744844],[-87.567399,41.748085],[-87.566179,41.748103],[-87.566239,41.751736],[-87.565025,41.751754],[-87.565016,41.751311],[-87.555928,41.751425],[-87.555938,41.751879],[-87.552294,41.751927],[-87.552902,41.752494],[-87.551601,41.753266],[-87.550978,41.752693],[-87.549652,41.753487],[-87.54807,41.751985],[-87.546847,41.75167],[-87.545016,41.752198],[-87.543068,41.752113],[-87.543369,41.752367],[-87.544013,41.753556],[-87.542044,41.756223],[-87.540491,41.757185],[-87.541117,41.757775],[-87.541494,41.757774],[-87.542589,41.75876],[-87.542499,41.759042],[-87.543649,41.760137],[-87.544017,41.75989],[-87.54498,41.759747],[-87.547082,41.758953],[-87.54871,41.75905],[-87.550142,41.759438],[-87.552663,41.760439],[-87.554151,41.761256],[-87.55452,41.761969],[-87.555015,41.761742],[-87.556356,41.762068],[-87.556845,41.762582],[-87.557055,41.762543],[-87.557552,41.762861],[-87.557608,41.763211],[-87.55853,41.764047],[-87.558721,41.763937],[-87.559467,41.764436],[-87.559441,41.764807],[-87.559653,41.765006],[-87.560084,41.765025],[-87.560528,41.765643],[-87.560631,41.76602],[-87.560487,41.766228],[-87.55943,41.766475],[-87.559344,41.76663],[-87.559444,41.769331],[-87.56005,41.768448],[-87.5623,41.769126],[-87.562609,41.769379],[-87.56347,41.770942],[-87.563291,41.771931],[-87.563402,41.772096],[-87.564384,41.772251],[-87.566022,41.773311],[-87.566097,41.773716],[-87.566963,41.77438],[-87.568457,41.776282],[-87.571449,41.778324],[-87.572288,41.779276],[-87.572866,41.779351],[-87.573709,41.778993],[-87.574334,41.779429],[-87.573048,41.779916],[-87.573154,41.780276],[-87.569553,41.781218],[-87.569518,41.781397],[-87.571042,41.781565],[-87.573311,41.782212],[-87.575638,41.783497],[-87.576168,41.784075],[-87.577253,41.786606],[-87.577338,41.78803],[-87.577136,41.788161],[-87.577284,41.788271],[-87.577922,41.788185],[-87.577822,41.788382],[-87.576698,41.788539],[-87.576552,41.788684],[-87.578339,41.79006],[-87.579468,41.792171],[-87.579608,41.792843],[-87.579328,41.793819],[-87.57858,41.794548],[-87.57737,41.794929],[-87.576261,41.795041],[-87.575446,41.795462],[-87.575173,41.79606],[-87.57525,41.796561],[-87.575986,41.797039],[-87.577581,41.796816],[-87.578261,41.797027],[-87.579992,41.79843],[-87.580888,41.800435],[-87.580664,41.802554],[-87.580063,41.803544],[-87.580037,41.803873],[-87.580635,41.804249],[-87.581131,41.804221],[-87.584132,41.806526],[-87.584592,41.806697],[-87.585237,41.807299],[-87.586981,41.810223],[-87.587066,41.811449],[-87.583454,41.812441],[-87.582098,41.815083],[-87.594682,41.834699],[-87.601414,41.844541],[-87.604844,41.854244],[-87.605261,41.869826],[-87.614786,41.868259],[-87.615368,41.868258],[-87.615706,41.868628],[-87.616263,41.868908],[-87.61635,41.871872],[-87.616204,41.871989],[-87.616182,41.874438],[-87.605357,41.874441],[-87.609253,41.882342],[-87.616105,41.882269],[-87.615709,41.88245],[-87.614027,41.882624],[-87.613333,41.882941],[-87.612759,41.883525],[-87.612732,41.884388],[-87.622855,41.884291],[-87.624755,41.884511],[-87.627917,41.884499],[-87.627344,41.867485],[-87.627505,41.867482],[-87.627394,41.86196],[-87.62723,41.861963],[-87.627009,41.849249],[-87.626865,41.847647],[-87.624978,41.848283],[-87.623694,41.848428],[-87.623411,41.846091],[-87.623285,41.841301],[-87.622689,41.841322],[-87.6227,41.841936],[-87.621984,41.842001],[-87.621931,41.838373],[-87.620642,41.838389],[-87.620557,41.831079],[-87.618412,41.831099],[-87.618343,41.827463],[-87.616818,41.827488],[-87.616738,41.823846],[-87.61263,41.823899],[-87.614096,41.816691],[-87.612864,41.816714],[-87.612803,41.814898],[-87.608325,41.814975],[-87.608284,41.813157],[-87.609918,41.813131],[-87.609873,41.811314],[-87.611505,41.811288],[-87.611417,41.807651],[-87.612635,41.807633],[-87.612593,41.805811],[-87.61556,41.805764],[-87.615513,41.803944],[-87.612552,41.803991],[-87.612509,41.802159],[-87.606413,41.802259],[-87.606043,41.785882],[-87.589314,41.786126],[-87.590152,41.782383],[-87.58951,41.782233],[-87.589008,41.782348],[-87.588979,41.780589],[-87.586464,41.780627],[-87.586426,41.778777],[-87.588938,41.77878],[-87.588857,41.775623],[-87.591083,41.775602],[-87.59118,41.775135],[-87.59791,41.775051],[-87.597948,41.776869],[-87.60038,41.776844],[-87.600339,41.775026],[-87.605815,41.774968],[-87.605668,41.768509],[-87.608027,41.768471],[-87.608628,41.768053],[-87.612187,41.77059],[-87.613733,41.769388],[-87.618579,41.769288],[-87.618679,41.772919],[-87.62757,41.772746],[-87.627522,41.770916],[-87.628319,41.770904],[-87.62822,41.76729],[-87.631055,41.767242],[-87.630966,41.763599],[-87.629734,41.76362],[-87.629651,41.761818],[-87.632256,41.756296],[-87.639411,41.756164],[-87.639516,41.752533],[-87.639322,41.750719],[-87.639765,41.750713]]]},"properties":{"name":"1","styleUrl":"#poly-8D26DD-1000-100-nodesc","fill-opacity":0.39215686274509803,"fill":"#8d26dd","stroke-opacity":1,"stroke":"#8d26dd","stroke-width":1,"number":"1"}},
{"type":"Feature","geometry":{"type":"Polygon","coordinates":[[[-87.813337,41.5916],[-87.80925,41.591737],[-87.806924,41.592509],[-87.805891,41.59313],[-87.803748,41.593184],[-87.803777,41.593981],[-87.799326,41.594081],[-87.799357,41.594934],[-87.798076,41.59498],[-87.79802,41.595787],[-87.793928,41.595804],[-87.794166,41.602292],[-87.731459,41.603356],[-87.731658,41.610122],[-87.722143,41.618029],[-87.714969,41.618275],[-87.715042,41.620078],[-87.707795,41.620212],[-87.707877,41.622066],[-87.693327,41.622368],[-87.693216,41.618703],[-87.686574,41.61877],[-87.690766,41.615567],[-87.685081,41.615734],[-87.685153,41.61916],[-87.68023,41.619242],[-87.680299,41.622844],[-87.675476,41.622678],[-87.665702,41.622656],[-87.665725,41.626292],[-87.656029,41.626267],[-87.65603,41.628384],[-87.656346,41.629905],[-87.65103,41.629789],[-87.617212,41.629909],[-87.617233,41.64459],[-87.578594,41.644738],[-87.578764,41.646163],[-87.579166,41.647622],[-87.580625,41.650288],[-87.600201,41.673099],[-87.60103,41.674347],[-87.601618,41.67597],[-87.60196,41.684152],[-87.601726,41.685845],[-87.594856,41.69877],[-87.594584,41.698939],[-87.592257,41.70301],[-87.591918,41.704132],[-87.591787,41.705359],[-87.59188,41.706522],[-87.592208,41.707664],[-87.607476,41.707418],[-87.607678,41.706499],[-87.610091,41.706463],[-87.610066,41.705551],[-87.612505,41.705516],[-87.612556,41.707341],[-87.613773,41.707323],[-87.61382,41.709146],[-87.618692,41.709069],[-87.618774,41.712712],[-87.620143,41.71269],[-87.620235,41.713386],[-87.621392,41.713759],[-87.623274,41.71497],[-87.622835,41.715869],[-87.622738,41.716546],[-87.623687,41.719815],[-87.624053,41.730146],[-87.63494,41.729994],[-87.635021,41.730863],[-87.636183,41.730845],[-87.63623,41.732604],[-87.637446,41.732596],[-87.637586,41.736803],[-87.642425,41.736774],[-87.642438,41.737363],[-87.643629,41.736719],[-87.643837,41.743366],[-87.645053,41.743348],[-87.645104,41.745167],[-87.646316,41.74515],[-87.646421,41.74879],[-87.642773,41.748847],[-87.642839,41.75105],[-87.639778,41.751096],[-87.639765,41.750713],[-87.639281,41.750816],[-87.639516,41.752533],[-87.639411,41.756164],[-87.641746,41.756123],[-87.641842,41.759791],[-87.641235,41.759859],[-87.641506,41.763437],[-87.64862,41.763327],[-87.648564,41.761506],[-87.654634,41.761416],[-87.654646,41.761872],[-87.657276,41.761834],[-87.657263,41.761378],[-87.658878,41.761354],[-87.658926,41.763172],[-87.663739,41.763098],[-87.663802,41.764917],[-87.669893,41.764854],[-87.669843,41.763033],[-87.671059,41.763021],[-87.670966,41.75937],[-87.673397,41.759331],[-87.672791,41.735662],[-87.673096,41.735658],[-87.668222,41.730185],[-87.667442,41.728459],[-87.665723,41.725621],[-87.663458,41.721209],[-87.663035,41.718395],[-87.65977,41.714012],[-87.661599,41.713991],[-87.657242,41.703544],[-87.659328,41.697852],[-87.664078,41.691057],[-87.666595,41.686706],[-87.67017,41.687848],[-87.671438,41.687927],[-87.67184,41.684635],[-87.673059,41.684613],[-87.673719,41.679181],[-87.673022,41.679131],[-87.673235,41.67733],[-87.667856,41.677427],[-87.668555,41.676135],[-87.667154,41.675842],[-87.666576,41.67745],[-87.661371,41.677552],[-87.661157,41.670338],[-87.659553,41.670327],[-87.6625,41.667793],[-87.662579,41.666574],[-87.662761,41.666571],[-87.662778,41.664421],[-87.662711,41.662859],[-87.662578,41.662862],[-87.662105,41.658152],[-87.660748,41.658592],[-87.660614,41.655115],[-87.656602,41.655504],[-87.65057,41.655777],[-87.651887,41.655268],[-87.653518,41.653908],[-87.654703,41.653185],[-87.656744,41.652541],[-87.659904,41.652051],[-87.663896,41.650389],[-87.667814,41.649587],[-87.669055,41.648981],[-87.669593,41.648247],[-87.691884,41.647965],[-87.691976,41.650878],[-87.689582,41.650921],[-87.689787,41.651699],[-87.689592,41.651921],[-87.699307,41.651439],[-87.704155,41.651441],[-87.704173,41.651956],[-87.718909,41.651712],[-87.725849,41.652215],[-87.731956,41.653464],[-87.735097,41.654457],[-87.73839,41.655746],[-87.738381,41.65547],[-87.748342,41.66063],[-87.74974,41.661549],[-87.758114,41.661394],[-87.75814,41.662114],[-87.758748,41.66209],[-87.75875,41.661384],[-87.75898,41.661371],[-87.805981,41.660541],[-87.805683,41.653301],[-87.82989,41.652812],[-87.829636,41.649219],[-87.829588,41.645505],[-87.8347,41.645405],[-87.834533,41.638121],[-87.834378,41.637474],[-87.834506,41.636533],[-87.834287,41.632018],[-87.834376,41.630865],[-87.834053,41.62595],[-87.834093,41.623612],[-87.851283,41.623184],[-87.853725,41.623241],[-87.85267,41.594338],[-87.848848,41.594339],[-87.847668,41.594177],[-87.827952,41.594474],[-87.827309,41.594344],[-87.826061,41.593746],[-87.825471,41.59366],[-87.822906,41.593709],[-87.821527,41.594138],[-87.818156,41.59418],[-87.816878,41.593805],[-87.816063,41.593839],[-87.815034,41.594145],[-87.813427,41.594177],[-87.813337,41.5916]]]},"properties":{"name":"2","styleUrl":"#poly-05C862-1000-100-nodesc","fill-opacity":0.39215686274509803,"fill":"#05c862","stroke-opacity":1,"stroke":"#05c862","stroke-width":1,"number":"2"}},
{"type":"Feature","geometry":{"type":"Polygon","coordinates":[[[-87.741799,41.767009],[-87.741905,41.764307],[-87.741431,41.750996],[-87.741364,41.749155],[-87.726834,41.74942],[-87.726884,41.753218],[-87.722046,41.753382],[-87.722197,41.756846],[-87.712329,41.756915],[-87.712724,41.770622],[-87.71273,41.77153],[-87.712555,41.771531],[-87.712709,41.778626],[-87.712732,41.77884],[-87.712903,41.778839],[-87.713001,41.780649],[-87.713505,41.797032],[-87.716531,41.796989],[-87.716585,41.798817],[-87.722051,41.798739],[-87.722102,41.800577],[-87.722777,41.800582],[-87.723379,41.800554],[-87.723375,41.80037],[-87.728214,41.798318],[-87.728174,41.796839],[-87.729399,41.796827],[-87.729499,41.800484],[-87.730726,41.800437],[-87.73073,41.800579],[-87.768367,41.794805],[-87.768475,41.795201],[-87.768626,41.799967],[-87.762544,41.800066],[-87.763415,41.832535],[-87.761771,41.832298],[-87.754495,41.832384],[-87.75359,41.832472],[-87.753596,41.832727],[-87.738816,41.832928],[-87.739168,41.83633],[-87.739158,41.836726],[-87.738914,41.837145],[-87.739852,41.86032],[-87.739938,41.865968],[-87.764315,41.865609],[-87.764254,41.863778],[-87.804145,41.863159],[-87.803798,41.850377],[-87.84272,41.849692],[-87.84235,41.842535],[-87.846379,41.842218],[-87.852141,41.842135],[-87.851819,41.834862],[-87.849363,41.834929],[-87.849226,41.831279],[-87.844337,41.831399],[-87.843912,41.820445],[-87.831855,41.820724],[-87.831942,41.824704],[-87.814131,41.828724],[-87.814537,41.829795],[-87.814467,41.830971],[-87.814211,41.831432],[-87.813121,41.832287],[-87.812475,41.833158],[-87.809775,41.833435],[-87.805052,41.834923],[-87.803121,41.835087],[-87.801777,41.801218],[-87.801735,41.798444],[-87.802099,41.798149],[-87.802104,41.797933],[-87.801621,41.794822],[-87.800873,41.776809],[-87.801022,41.776273],[-87.800811,41.775518],[-87.800812,41.773717],[-87.742171,41.774788],[-87.741799,41.767009]]]},"properties":{"name":"3","styleUrl":"#poly-DE6A19-1000-100-nodesc","fill-opacity":0.39215686274509803,"fill":"#de6a19","stroke-opacity":1,"stroke":"#de6a19","stroke-width":1,"number":"3"}},
{"type":"Feature","geometry":{"type":"Polygon","coordinates":[[[-87.920177,41.958173],[-87.920446,41.902109],[-87.920562,41.90113],[-87.920632,41.889529],[-87.920423,41.864138],[-87.920305,41.861606],[-87.919401,41.854047],[-87.919236,41.846051],[-87.919733,41.841449],[-87.91977,41.839615],[-87.919087,41.836022],[-87.917682,41.805652],[-87.915125,41.738452],[-87.914889,41.731143],[-87.906733,41.731303],[-87.905977,41.731182],[-87.904773,41.731396],[-87.904413,41.732027],[-87.902567,41.732135],[-87.901217,41.732134],[-87.901267,41.731454],[-87.900432,41.731389],[-87.890682,41.731683],[-87.890556,41.731812],[-87.890588,41.732559],[-87.889797,41.732663],[-87.887108,41.735735],[-87.886051,41.736264],[-87.885859,41.732132],[-87.88653,41.731641],[-87.88086,41.731739],[-87.879285,41.732025],[-87.876678,41.732006],[-87.876484,41.731871],[-87.871786,41.732087],[-87.817546,41.733127],[-87.811303,41.733378],[-87.741073,41.734532],[-87.740944,41.737065],[-87.741873,41.76298],[-87.741799,41.767009],[-87.742171,41.774788],[-87.800812,41.773717],[-87.800811,41.775518],[-87.801022,41.776273],[-87.800873,41.776809],[-87.801621,41.794822],[-87.802104,41.797933],[-87.802099,41.798149],[-87.801735,41.798444],[-87.801777,41.801218],[-87.803121,41.835087],[-87.805052,41.834923],[-87.809775,41.833435],[-87.812475,41.833158],[-87.813121,41.832287],[-87.814211,41.831432],[-87.814467,41.830971],[-87.814537,41.829795],[-87.814131,41.828724],[-87.831942,41.824704],[-87.831855,41.820724],[-87.843912,41.820445],[-87.844337,41.831399],[-87.849226,41.831279],[-87.849363,41.834929],[-87.851819,41.834862],[-87.852141,41.842135],[-87.846379,41.842218],[-87.84235,41.842535],[-87.842924,41.853879],[-87.843209,41.864319],[-87.848122,41.864191],[-87.848428,41.871476],[-87.853339,41.871346],[-87.853191,41.867872],[-87.861789,41.867648],[-87.86302,41.867632],[-87.86317,41.87119],[-87.877882,41.870708],[-87.882831,41.870894],[-87.882496,41.863268],[-87.902047,41.862711],[-87.902801,41.879215],[-87.903281,41.881167],[-87.903272,41.892674],[-87.903158,41.893639],[-87.903415,41.896568],[-87.903368,41.899838],[-87.898408,41.899998],[-87.898402,41.900822],[-87.903239,41.901824],[-87.903182,41.907049],[-87.885694,41.907374],[-87.885703,41.907531],[-87.857435,41.908043],[-87.857126,41.908042],[-87.857122,41.907916],[-87.85066,41.908011],[-87.82546,41.908553],[-87.825521,41.915429],[-87.825649,41.915814],[-87.82626,41.937758],[-87.849594,41.937294],[-87.851531,41.938848],[-87.85189,41.939432],[-87.852215,41.941122],[-87.853633,41.944787],[-87.855172,41.947942],[-87.855185,41.948788],[-87.854123,41.951336],[-87.847771,41.951684],[-87.847398,41.955766],[-87.85796,41.955346],[-87.858651,41.956167],[-87.85887,41.956785],[-87.858807,41.957452],[-87.8557,41.962628],[-87.855768,41.964505],[-87.855044,41.965667],[-87.854789,41.966423],[-87.855123,41.96811],[-87.855068,41.968677],[-87.854263,41.970497],[-87.854108,41.971232],[-87.85439,41.971831],[-87.855379,41.972535],[-87.856277,41.97244],[-87.857816,41.971671],[-87.859027,41.971475],[-87.859535,41.971579],[-87.86093,41.97234],[-87.861665,41.972998],[-87.86186,41.973367],[-87.872253,41.973073],[-87.880884,41.97309],[-87.880565,41.957123],[-87.883242,41.957241],[-87.884303,41.957534],[-87.889262,41.957982],[-87.893093,41.958094],[-87.893254,41.954715],[-87.892669,41.952138],[-87.892667,41.95072],[-87.897168,41.950645],[-87.904688,41.951269],[-87.908534,41.951927],[-87.91446,41.953544],[-87.914457,41.956816],[-87.91493,41.957088],[-87.91681,41.957709],[-87.920177,41.958173]]]},"properties":{"name":"4","styleUrl":"#poly-B08767-1000-100-nodesc","fill-opacity":0.39215686274509803,"fill":"#b08767","stroke-opacity":1,"stroke":"#b08767","stroke-width":1,"number":"4"}},
{"type":"Feature","geometry":{"type":"Polygon","coordinates":[[[-87.740981,41.738194],[-87.741054,41.734714],[-87.741073,41.734532],[-87.672791,41.735662],[-87.673397,41.759331],[-87.670966,41.75937],[-87.671059,41.763021],[-87.669843,41.763033],[-87.669893,41.764854],[-87.663802,41.764917],[-87.663739,41.763098],[-87.658926,41.763172],[-87.658878,41.761354],[-87.657263,41.761378],[-87.657276,41.761834],[-87.654646,41.761872],[-87.654634,41.761416],[-87.648564,41.761506],[-87.64862,41.763327],[-87.641506,41.763437],[-87.641235,41.759859],[-87.641842,41.759791],[-87.641746,41.756123],[-87.632256,41.756296],[-87.629651,41.761818],[-87.629734,41.76362],[-87.630966,41.763599],[-87.631055,41.767242],[-87.62822,41.76729],[-87.628319,41.770904],[-87.627522,41.770916],[-87.62757,41.772746],[-87.618679,41.772919],[-87.618579,41.769288],[-87.613733,41.769388],[-87.612187,41.77059],[-87.608628,41.768053],[-87.608027,41.768471],[-87.605668,41.768509],[-87.605815,41.774968],[-87.600339,41.775026],[-87.60038,41.776844],[-87.597948,41.776869],[-87.59791,41.775051],[-87.59118,41.775135],[-87.591083,41.775602],[-87.588857,41.775623],[-87.588938,41.77878],[-87.586426,41.778777],[-87.586464,41.780627],[-87.588979,41.780589],[-87.589008,41.782348],[-87.58951,41.782233],[-87.590152,41.782383],[-87.589314,41.786126],[-87.606043,41.785882],[-87.606413,41.802259],[-87.612509,41.802159],[-87.612552,41.803991],[-87.615513,41.803944],[-87.61556,41.805764],[-87.612593,41.805811],[-87.612635,41.807633],[-87.611417,41.807651],[-87.611505,41.811288],[-87.609873,41.811314],[-87.609918,41.813131],[-87.608284,41.813157],[-87.608325,41.814975],[-87.612803,41.814898],[-87.612864,41.816714],[-87.614096,41.816691],[-87.61263,41.823899],[-87.616738,41.823846],[-87.616818,41.827488],[-87.618343,41.827463],[-87.618412,41.831099],[-87.620557,41.831079],[-87.620642,41.838389],[-87.621931,41.838373],[-87.621984,41.842001],[-87.6227,41.841936],[-87.622689,41.841322],[-87.623285,41.841301],[-87.623411,41.846091],[-87.623694,41.848428],[-87.624978,41.848283],[-87.626865,41.847647],[-87.626995,41.848778],[-87.62723,41.861963],[-87.627394,41.86196],[-87.627479,41.86575],[-87.627505,41.867482],[-87.627344,41.867485],[-87.627488,41.873101],[-87.627917,41.884499],[-87.624755,41.884511],[-87.622855,41.884291],[-87.612732,41.884388],[-87.612737,41.888318],[-87.595869,41.888119],[-87.599764,41.897729],[-87.617058,41.90014],[-87.618413,41.900025],[-87.617983,41.899318],[-87.621877,41.899252],[-87.621862,41.898427],[-87.626909,41.898353],[-87.626878,41.897548],[-87.628228,41.897528],[-87.628098,41.892477],[-87.636876,41.892361],[-87.637061,41.892382],[-87.637085,41.893154],[-87.63812,41.89266],[-87.641966,41.892546],[-87.639212,41.888864],[-87.638642,41.887106],[-87.637691,41.886464],[-87.638238,41.882288],[-87.638191,41.879715],[-87.637154,41.876076],[-87.636177,41.874911],[-87.636029,41.874415],[-87.635442,41.871807],[-87.634796,41.867372],[-87.630443,41.86744],[-87.630074,41.852949],[-87.630273,41.852947],[-87.630115,41.85212],[-87.6296,41.830978],[-87.63151,41.830947],[-87.631471,41.829072],[-87.632673,41.829043],[-87.632633,41.827289],[-87.633848,41.827273],[-87.633769,41.823624],[-87.655986,41.823324],[-87.65554,41.822693],[-87.655527,41.821863],[-87.65579,41.821248],[-87.655876,41.820106],[-87.655405,41.818517],[-87.655156,41.804845],[-87.662443,41.804783],[-87.662449,41.805003],[-87.664873,41.804972],[-87.664782,41.801326],[-87.674513,41.801241],[-87.674388,41.796671],[-87.676818,41.796643],[-87.676741,41.793898],[-87.678821,41.793876],[-87.678812,41.793508],[-87.67994,41.793496],[-87.680208,41.791354],[-87.679976,41.782837],[-87.683748,41.782919],[-87.6838,41.784742],[-87.687456,41.78469],[-87.687363,41.781038],[-87.688579,41.781019],[-87.688529,41.779196],[-87.693398,41.779124],[-87.693304,41.775435],[-87.692692,41.775442],[-87.692645,41.77364],[-87.692037,41.773651],[-87.692014,41.772805],[-87.691993,41.771849],[-87.693212,41.771832],[-87.693035,41.764548],[-87.702819,41.764397],[-87.702505,41.753459],[-87.712005,41.753316],[-87.711896,41.749663],[-87.721918,41.74951],[-87.721685,41.742187],[-87.725326,41.742123],[-87.725265,41.740292],[-87.726472,41.740272],[-87.726416,41.738442],[-87.740981,41.738194]]]},"properties":{"name":"5","styleUrl":"#poly-8193C9-1000-100-nodesc","fill-opacity":0.39215686274509803,"fill":"#8193c9","stroke-opacity":1,"stroke":"#8193c9","stroke-width":1,"number":"5"}},
{"type":"Feature","geometry":{"type":"Polygon","coordinates":[[[-87.790644,41.93095],[-87.790537,41.927247],[-87.79041,41.923549],[-87.787887,41.923246],[-87.787697,41.917051],[-87.785483,41.916651],[-87.785238,41.916646],[-87.785283,41.918236],[-87.780407,41.9183],[-87.780395,41.917929],[-87.780265,41.917854],[-87.768207,41.91806],[-87.768166,41.916864],[-87.766946,41.916877],[-87.767024,41.918988],[-87.765812,41.918771],[-87.766125,41.927636],[-87.746451,41.927917],[-87.746464,41.928204],[-87.741995,41.928259],[-87.742004,41.928428],[-87.741553,41.92844],[-87.736818,41.928494],[-87.736719,41.927999],[-87.717094,41.928263],[-87.717109,41.928719],[-87.714665,41.92877],[-87.71465,41.928294],[-87.712208,41.928324],[-87.712163,41.926489],[-87.710819,41.926511],[-87.710857,41.927887],[-87.710223,41.927894],[-87.710241,41.928346],[-87.707901,41.928373],[-87.707592,41.927975],[-87.705781,41.928081],[-87.700411,41.924787],[-87.687648,41.924909],[-87.687714,41.926686],[-87.687861,41.92674],[-87.687715,41.926747],[-87.687721,41.927249],[-87.688058,41.939468],[-87.692468,41.939435],[-87.693514,41.940204],[-87.695205,41.942377],[-87.696847,41.949459],[-87.696765,41.950464],[-87.694452,41.954002],[-87.694384,41.954307],[-87.694362,41.957734],[-87.694897,41.961707],[-87.695591,41.963082],[-87.700645,41.968023],[-87.702697,41.97033],[-87.703679,41.972137],[-87.712813,41.972033],[-87.714933,41.971804],[-87.716054,41.971919],[-87.716527,41.972138],[-87.716449,41.97202],[-87.720803,41.971973],[-87.720753,41.970152],[-87.728087,41.970072],[-87.728034,41.96825],[-87.737908,41.968142],[-87.737857,41.966548],[-87.736914,41.965896],[-87.737157,41.965663],[-87.737023,41.960856],[-87.744547,41.960764],[-87.747379,41.962441],[-87.747594,41.962243],[-87.747541,41.96073],[-87.764784,41.960519],[-87.764855,41.962391],[-87.767308,41.962362],[-87.767129,41.95684],[-87.773483,41.956754],[-87.774461,41.956742],[-87.77458,41.960393],[-87.77947,41.960325],[-87.779353,41.956674],[-87.781799,41.956642],[-87.781665,41.952989],[-87.786565,41.952924],[-87.786216,41.942002],[-87.799494,41.941756],[-87.799471,41.939936],[-87.801295,41.939906],[-87.800806,41.925378],[-87.804458,41.925348],[-87.804406,41.924299],[-87.803576,41.924299],[-87.803498,41.924139],[-87.800768,41.924168],[-87.800632,41.919912],[-87.798823,41.919903],[-87.798818,41.921163],[-87.792341,41.921203],[-87.792414,41.923629],[-87.792801,41.923626],[-87.793034,41.930921],[-87.790644,41.93095]]]},"properties":{"name":"6","styleUrl":"#poly-10C990-1000-100-nodesc","fill-opacity":0.39215686274509803,"fill":"#10c990","stroke-opacity":1,"stroke":"#10c990","stroke-width":1,"number":"6"}},
{"type":"Feature","geometry":{"type":"Polygon","coordinates":[[[-87.739429,41.851359],[-87.728257,41.851625],[-87.723594,41.851668],[-87.72355,41.851492],[-87.712588,41.851698],[-87.712553,41.85132],[-87.710134,41.851714],[-87.710184,41.853557],[-87.708963,41.853568],[-87.709019,41.855395],[-87.695575,41.85556],[-87.695913,41.866519],[-87.700794,41.866464],[-87.701486,41.889583],[-87.701876,41.889957],[-87.702748,41.89012],[-87.702758,41.890358],[-87.703939,41.890345],[-87.704097,41.895175],[-87.704658,41.89558],[-87.706562,41.895561],[-87.706652,41.898319],[-87.71139,41.900204],[-87.71189,41.900061],[-87.712789,41.900751],[-87.712781,41.899148],[-87.724977,41.899043],[-87.724922,41.897214],[-87.726146,41.897209],[-87.726086,41.895376],[-87.745813,41.895012],[-87.746042,41.905996],[-87.748508,41.905969],[-87.748548,41.90777],[-87.751001,41.907751],[-87.751041,41.909571],[-87.755802,41.909509],[-87.75568,41.91],[-87.755944,41.916942],[-87.765812,41.918771],[-87.765539,41.910172],[-87.76573,41.909387],[-87.775606,41.909262],[-87.774145,41.865467],[-87.804205,41.864988],[-87.805754,41.908912],[-87.85066,41.908011],[-87.857122,41.907916],[-87.857126,41.908042],[-87.857435,41.908043],[-87.885703,41.907531],[-87.885694,41.907374],[-87.903182,41.907049],[-87.903239,41.901824],[-87.898402,41.900822],[-87.898408,41.899998],[-87.903368,41.899838],[-87.903415,41.896568],[-87.903158,41.893639],[-87.903272,41.892674],[-87.903281,41.881167],[-87.902801,41.879215],[-87.902047,41.862711],[-87.882496,41.863268],[-87.882831,41.870894],[-87.877882,41.870708],[-87.86317,41.87119],[-87.86302,41.867632],[-87.861789,41.867648],[-87.853191,41.867872],[-87.853339,41.871346],[-87.848428,41.871476],[-87.848122,41.864191],[-87.843209,41.864319],[-87.84272,41.849692],[-87.805398,41.850342],[-87.803798,41.850377],[-87.804145,41.863159],[-87.764254,41.863778],[-87.764315,41.865609],[-87.739938,41.865968],[-87.739852,41.86032],[-87.739429,41.851359]]]},"properties":{"name":"7","styleUrl":"#poly-247F70-1000-100-nodesc","fill-opacity":0.39215686274509803,"fill":"#247f70","stroke-opacity":1,"stroke":"#247f70","stroke-width":1,"number":"7"}},
{"type":"Feature","geometry":{"type":"Polygon","coordinates":[[[-87.655586,41.824388],[-87.655981,41.823583],[-87.655986,41.823324],[-87.633769,41.823624],[-87.633848,41.827273],[-87.632633,41.827289],[-87.632673,41.829043],[-87.631471,41.829072],[-87.63151,41.830947],[-87.6296,41.830978],[-87.630115,41.85212],[-87.630273,41.852947],[-87.630074,41.852949],[-87.630443,41.86744],[-87.634796,41.867372],[-87.635442,41.871807],[-87.636029,41.874415],[-87.636177,41.874911],[-87.637154,41.876076],[-87.638191,41.879715],[-87.638238,41.882288],[-87.637691,41.886464],[-87.638642,41.887106],[-87.639212,41.888864],[-87.641966,41.892546],[-87.63812,41.89266],[-87.637085,41.893154],[-87.637061,41.892382],[-87.636876,41.892361],[-87.628098,41.892477],[-87.628254,41.898477],[-87.629833,41.898452],[-87.629821,41.897997],[-87.632684,41.897964],[-87.632975,41.907718],[-87.633127,41.907704],[-87.633236,41.911172],[-87.6386,41.91118],[-87.638943,41.921969],[-87.638286,41.921977],[-87.642872,41.929629],[-87.643584,41.930173],[-87.644692,41.932049],[-87.644892,41.932809],[-87.658716,41.932564],[-87.658975,41.939846],[-87.668668,41.939705],[-87.668913,41.948822],[-87.671346,41.94879],[-87.67145,41.954264],[-87.67876,41.95417],[-87.678795,41.955312],[-87.679559,41.955302],[-87.680029,41.955971],[-87.6861,41.955887],[-87.686175,41.958437],[-87.687377,41.958461],[-87.68742,41.959515],[-87.691758,41.959478],[-87.69181,41.9613],[-87.6948,41.961281],[-87.694362,41.957734],[-87.694384,41.954307],[-87.694452,41.954002],[-87.696765,41.950464],[-87.696847,41.949459],[-87.695205,41.942377],[-87.693514,41.940204],[-87.692468,41.939435],[-87.688058,41.939468],[-87.687721,41.927249],[-87.687715,41.926747],[-87.687861,41.92674],[-87.687714,41.926686],[-87.687653,41.925061],[-87.687033,41.903024],[-87.682146,41.903115],[-87.682137,41.90262],[-87.674811,41.902737],[-87.674772,41.901417],[-87.67234,41.901459],[-87.672327,41.900967],[-87.667436,41.90105],[-87.667398,41.899716],[-87.660967,41.899837],[-87.66022,41.899353],[-87.659038,41.896917],[-87.657391,41.895235],[-87.657493,41.894938],[-87.657353,41.888952],[-87.656911,41.888878],[-87.656697,41.883388],[-87.656696,41.881667],[-87.657149,41.88166],[-87.656977,41.875349],[-87.656773,41.874675],[-87.656782,41.873244],[-87.656907,41.873242],[-87.656906,41.872971],[-87.656485,41.859773],[-87.647679,41.859906],[-87.647627,41.858083],[-87.6483,41.85807],[-87.648138,41.852621],[-87.646501,41.852655],[-87.646435,41.850516],[-87.646479,41.849198],[-87.6504,41.848025],[-87.65315,41.847616],[-87.656124,41.84794],[-87.657807,41.847513],[-87.658049,41.847732],[-87.661552,41.845449],[-87.663155,41.844693],[-87.664455,41.844625],[-87.664337,41.842708],[-87.664957,41.841854],[-87.664989,41.841469],[-87.664689,41.840849],[-87.664366,41.839383],[-87.663236,41.83762],[-87.663067,41.836928],[-87.661717,41.835385],[-87.659685,41.833675],[-87.657595,41.831497],[-87.657377,41.831238],[-87.657332,41.830609],[-87.655734,41.830628],[-87.655586,41.824388]]]},"properties":{"name":"8","styleUrl":"#poly-977D3A-1000-100-nodesc","fill-opacity":0.39215686274509803,"fill":"#977d3a","stroke-opacity":1,"stroke":"#977d3a","stroke-width":1,"number":"8"}},
{"type":"Feature","geometry":{"type":"Polygon","coordinates":[[[-87.689679,41.990508],[-87.689227,41.977716],[-87.689157,41.9759],[-87.668423,41.976199],[-87.668278,41.97974],[-87.668435,41.981678],[-87.66979,41.987932],[-87.670004,41.98992],[-87.670237,41.996396],[-87.670629,41.998083],[-87.655003,41.998304],[-87.655135,41.998737],[-87.655819,41.999402],[-87.655876,42.00004],[-87.656347,42.001045],[-87.656199,42.001275],[-87.656773,42.002379],[-87.657295,42.004191],[-87.656794,42.00424],[-87.657324,42.005251],[-87.657301,42.006283],[-87.65577,42.00631],[-87.655284,42.006738],[-87.655549,42.00676],[-87.658654,42.009665],[-87.658706,42.010022],[-87.661009,42.012197],[-87.662473,42.015771],[-87.662679,42.015826],[-87.662818,42.016628],[-87.663149,42.016924],[-87.663083,42.017616],[-87.663296,42.018094],[-87.663237,42.018461],[-87.66376,42.018956],[-87.663848,42.019351],[-87.663686,42.019406],[-87.663716,42.019565],[-87.663863,42.019532],[-87.664083,42.020169],[-87.663796,42.020388],[-87.664061,42.021355],[-87.664267,42.0213],[-87.66476,42.021926],[-87.664642,42.021948],[-87.665106,42.022782],[-87.665179,42.023403],[-87.666688,42.026143],[-87.667233,42.026714],[-87.666982,42.026862],[-87.66844,42.028196],[-87.66869,42.028987],[-87.668609,42.029267],[-87.6693,42.033818],[-87.669595,42.034318],[-87.669403,42.034367],[-87.669653,42.035482],[-87.669086,42.035515],[-87.669867,42.036459],[-87.670051,42.036937],[-87.669874,42.037404],[-87.669572,42.037557],[-87.669535,42.039023],[-87.669115,42.039556],[-87.669379,42.041274],[-87.670248,42.041944],[-87.671971,42.0438],[-87.672148,42.044689],[-87.672089,42.04548],[-87.672258,42.045612],[-87.673179,42.047945],[-87.672221,42.048236],[-87.672655,42.049087],[-87.672626,42.049746],[-87.672073,42.050706],[-87.671219,42.050728],[-87.671137,42.050553],[-87.671048,42.052349],[-87.670383,42.052281],[-87.670165,42.051969],[-87.669502,42.05209],[-87.669325,42.052331],[-87.66987,42.054],[-87.670112,42.055933],[-87.670009,42.057882],[-87.669551,42.059732],[-87.669876,42.059946],[-87.67087,42.060083],[-87.671283,42.059738],[-87.673065,42.061363],[-87.673382,42.061824],[-87.673772,42.06323],[-87.674207,42.063866],[-87.674001,42.064053],[-87.675415,42.064871],[-87.675724,42.065799],[-87.675636,42.065991],[-87.675916,42.066584],[-87.676638,42.067089],[-87.678421,42.069703],[-87.680027,42.072415],[-87.681058,42.073491],[-87.681906,42.074765],[-87.682186,42.075435],[-87.681884,42.076719],[-87.681471,42.076653],[-87.680093,42.0769],[-87.681434,42.076763],[-87.682156,42.076933],[-87.682105,42.077148],[-87.682237,42.077202],[-87.679857,42.077488],[-87.679466,42.077147],[-87.679349,42.077213],[-87.679842,42.077581],[-87.680837,42.077515],[-87.681043,42.078421],[-87.679923,42.078696],[-87.679975,42.078805],[-87.681471,42.078449],[-87.683409,42.079426],[-87.689416,42.081886],[-87.694531,42.084389],[-87.696683,42.085788],[-87.697354,42.086052],[-87.697744,42.086409],[-87.697531,42.086541],[-87.698202,42.087089],[-87.698459,42.086936],[-87.700229,42.088061],[-87.700236,42.088396],[-87.703273,42.089933],[-87.703893,42.090454],[-87.703871,42.090591],[-87.705935,42.091771],[-87.707078,42.09305],[-87.711236,42.095707],[-87.711458,42.096058],[-87.712549,42.096645],[-87.714673,42.09839],[-87.717844,42.101618],[-87.720116,42.103412],[-87.720337,42.103846],[-87.721208,42.10445],[-87.722668,42.106091],[-87.724461,42.107496],[-87.724586,42.107929],[-87.726158,42.109224],[-87.726357,42.109702],[-87.726925,42.110273],[-87.726962,42.110657],[-87.727781,42.111337],[-87.728202,42.112056],[-87.729552,42.113264],[-87.729383,42.113423],[-87.730563,42.114685],[-87.729826,42.115037],[-87.730099,42.115037],[-87.730018,42.115267],[-87.730239,42.115201],[-87.730505,42.115503],[-87.730365,42.115728],[-87.729466,42.116212],[-87.729746,42.116547],[-87.730203,42.116332],[-87.730557,42.116387],[-87.73193,42.117523],[-87.734541,42.119312],[-87.734453,42.119394],[-87.735612,42.120179],[-87.736224,42.120793],[-87.735996,42.120914],[-87.736689,42.121485],[-87.736689,42.12182],[-87.737354,42.122478],[-87.737457,42.122857],[-87.737745,42.122923],[-87.738284,42.123554],[-87.7381,42.123658],[-87.7397,42.125589],[-87.739516,42.125672],[-87.740896,42.127016],[-87.740719,42.127099],[-87.741332,42.127675],[-87.741457,42.128163],[-87.74193,42.128789],[-87.741775,42.128904],[-87.742573,42.129826],[-87.74241,42.129898],[-87.742957,42.130496],[-87.74275,42.1306],[-87.74306,42.131023],[-87.744485,42.132581],[-87.744353,42.132675],[-87.745689,42.133767],[-87.745512,42.133953],[-87.745999,42.134255],[-87.74718,42.135457],[-87.74865,42.137487],[-87.74792,42.137817],[-87.751144,42.140947],[-87.752876,42.143165],[-87.752736,42.143281],[-87.753451,42.143912],[-87.754054,42.145132],[-87.75446,42.145543],[-87.754334,42.145593],[-87.756766,42.148866],[-87.756877,42.149212],[-87.756757,42.149267],[-87.757451,42.150048],[-87.757399,42.150251],[-87.758357,42.151558],[-87.758238,42.151613],[-87.758785,42.152008],[-87.758629,42.152145],[-87.758835,42.152277],[-87.766528,42.152385],[-87.789528,42.152481],[-87.789825,42.14884],[-87.790073,42.141104],[-87.790056,42.139255],[-87.789731,42.137941],[-87.779858,42.137879],[-87.780369,42.123535],[-87.77028,42.123363],[-87.770807,42.106046],[-87.770701,42.095947],[-87.770817,42.09498],[-87.770674,42.094143],[-87.770894,42.093884],[-87.770768,42.093544],[-87.770972,42.092952],[-87.771164,42.087999],[-87.771385,42.087628],[-87.771068,42.086929],[-87.771065,42.085748],[-87.771354,42.080701],[-87.771252,42.079711],[-87.771474,42.065152],[-87.747768,42.064918],[-87.746622,42.064738],[-87.744869,42.064845],[-87.732426,42.064674],[-87.732462,42.062489],[-87.727377,42.062491],[-87.727476,42.055264],[-87.715791,42.055325],[-87.714909,42.055095],[-87.71011,42.052838],[-87.708862,42.052437],[-87.709177,42.049309],[-87.709611,42.048211],[-87.70991,42.033693],[-87.708667,42.033684],[-87.709033,42.019142],[-87.708668,42.019152],[-87.708777,42.01452],[-87.709027,42.013409],[-87.709197,42.010507],[-87.70935,41.997397],[-87.722795,41.997273],[-87.722726,41.995501],[-87.721488,41.995507],[-87.721363,41.990238],[-87.701832,41.990437],[-87.70201,41.995743],[-87.702616,41.995734],[-87.702658,41.997064],[-87.703266,41.997051],[-87.7033,41.997505],[-87.689889,41.997738],[-87.689937,41.999552],[-87.687502,41.999594],[-87.687489,41.999138],[-87.686881,41.999148],[-87.686852,41.9982],[-87.686246,41.998209],[-87.686086,41.994164],[-87.68732,41.994142],[-87.687212,41.99055],[-87.689679,41.990508]]]},"properties":{"name":"9","styleUrl":"#poly-C810B7-1000-100-nodesc","fill-opacity":0.39215686274509803,"fill":"#c810b7","stroke-opacity":1,"stroke":"#c810b7","stroke-width":1,"number":"9"}},
{"type":"Feature","geometry":{"type":"Polygon","coordinates":[[[-87.747379,41.962441],[-87.744547,41.960764],[-87.737023,41.960856],[-87.737157,41.965663],[-87.736914,41.965896],[-87.737857,41.966548],[-87.737908,41.968142],[-87.728034,41.96825],[-87.728087,41.970072],[-87.720753,41.970152],[-87.720803,41.971973],[-87.716449,41.97202],[-87.716527,41.972138],[-87.716054,41.971919],[-87.714933,41.971804],[-87.712813,41.972033],[-87.703679,41.972137],[-87.703116,41.970896],[-87.701099,41.968522],[-87.688913,41.968623],[-87.688971,41.97042],[-87.684108,41.970511],[-87.684199,41.973136],[-87.674853,41.973364],[-87.674924,41.976102],[-87.689157,41.9759],[-87.689679,41.990508],[-87.687212,41.99055],[-87.68732,41.994142],[-87.686086,41.994164],[-87.686246,41.998209],[-87.686852,41.9982],[-87.686881,41.999148],[-87.687489,41.999138],[-87.687502,41.999594],[-87.689937,41.999552],[-87.689889,41.997738],[-87.7033,41.997505],[-87.703266,41.997051],[-87.702658,41.997064],[-87.702616,41.995734],[-87.70201,41.995743],[-87.701832,41.990437],[-87.721363,41.990238],[-87.721488,41.995507],[-87.722726,41.995501],[-87.722795,41.997273],[-87.70935,41.997397],[-87.709197,42.010507],[-87.709027,42.013409],[-87.708777,42.01452],[-87.708668,42.019152],[-87.709033,42.019142],[-87.708667,42.033684],[-87.70991,42.033693],[-87.709611,42.048211],[-87.709177,42.049309],[-87.708862,42.052437],[-87.71011,42.052838],[-87.714909,42.055095],[-87.715791,42.055325],[-87.727476,42.055264],[-87.727377,42.062491],[-87.732462,42.062489],[-87.732426,42.064674],[-87.744869,42.064845],[-87.746622,42.064738],[-87.747768,42.064918],[-87.771474,42.065152],[-87.771252,42.079711],[-87.771354,42.080701],[-87.771065,42.085748],[-87.771068,42.086929],[-87.771385,42.087628],[-87.771164,42.087999],[-87.770972,42.092952],[-87.770768,42.093544],[-87.770894,42.093884],[-87.770674,42.094143],[-87.7807,42.094332],[-87.780622,42.098008],[-87.781818,42.09803],[-87.781808,42.0998],[-87.78303,42.09981],[-87.783065,42.097993],[-87.785085,42.098008],[-87.785627,42.098835],[-87.787148,42.098857],[-87.788735,42.099102],[-87.790359,42.09898],[-87.790249,42.105295],[-87.856595,42.105744],[-87.856548,42.104925],[-87.858806,42.104924],[-87.858899,42.095028],[-87.858751,42.094624],[-87.858922,42.092911],[-87.859065,42.080049],[-87.851598,42.08006],[-87.849261,42.082516],[-87.849231,42.080364],[-87.846053,42.080473],[-87.845371,42.080136],[-87.844533,42.080127],[-87.842565,42.079122],[-87.842645,42.074843],[-87.842477,42.07308],[-87.805502,42.072839],[-87.805571,42.069384],[-87.805926,42.064847],[-87.806451,42.026287],[-87.840951,42.025474],[-87.85785,42.024899],[-87.85524,42.023423],[-87.855286,42.010462],[-87.830482,42.011137],[-87.829265,42.011318],[-87.813947,42.011529],[-87.813939,42.013349],[-87.806615,42.013535],[-87.806756,42.001513],[-87.79982,42.001537],[-87.799487,41.999993],[-87.797132,42.000013],[-87.79713,42.000948],[-87.793946,42.00097],[-87.793946,41.997326],[-87.792316,41.997332],[-87.791984,41.995524],[-87.787503,41.995556],[-87.787606,41.990201],[-87.778391,41.990225],[-87.771895,41.986868],[-87.771942,41.98476],[-87.773155,41.984754],[-87.773283,41.977906],[-87.773108,41.977021],[-87.764699,41.972282],[-87.764138,41.971663],[-87.763758,41.971767],[-87.76242,41.971016],[-87.760253,41.970209],[-87.754221,41.966826],[-87.749984,41.964163],[-87.746987,41.963],[-87.747379,41.962441]]]},"properties":{"name":"10","styleUrl":"#poly-E94408-1000-100-nodesc","fill-opacity":0.39215686274509803,"fill":"#e94408","stroke-opacity":1,"stroke":"#e94408","stroke-width":1,"number":"10"}},
{"type":"Feature","geometry":{"type":"Polygon","coordinates":[[[-87.773108,41.977021],[-87.773277,41.977116],[-87.773102,41.97699],[-87.773108,41.977021]]]},"properties":{"name":"10","styleUrl":"#poly-E94408-1000-100-nodesc","fill-opacity":0.39215686274509803,"fill":"#e94408","stroke-opacity":1,"stroke":"#e94408","stroke-width":1,"number":"10"}},
{"type":"Feature","geometry":{"type":"Polygon","coordinates":[[[-87.805754,41.908912],[-87.804205,41.864988],[-87.774145,41.865467],[-87.775606,41.909262],[-87.76573,41.909387],[-87.765539,41.910172],[-87.765812,41.918771],[-87.767024,41.918988],[-87.766946,41.916877],[-87.768166,41.916864],[-87.768207,41.91806],[-87.780265,41.917854],[-87.780395,41.917929],[-87.780407,41.9183],[-87.785283,41.918236],[-87.785238,41.916646],[-87.787661,41.917012],[-87.787887,41.923246],[-87.79041,41.923549],[-87.790644,41.93095],[-87.793034,41.930921],[-87.792801,41.923626],[-87.792414,41.923629],[-87.792341,41.921203],[-87.798818,41.921163],[-87.798823,41.919903],[-87.800632,41.919912],[-87.800768,41.924168],[-87.803498,41.924139],[-87.803576,41.924299],[-87.804406,41.924299],[-87.804458,41.925348],[-87.800806,41.925378],[-87.801295,41.939906],[-87.799471,41.939936],[-87.799494,41.941756],[-87.786216,41.942002],[-87.786565,41.952924],[-87.781665,41.952989],[-87.781799,41.956642],[-87.779353,41.956674],[-87.77947,41.960325],[-87.77458,41.960393],[-87.774461,41.956742],[-87.767129,41.95684],[-87.767308,41.962362],[-87.764855,41.962391],[-87.764784,41.960519],[-87.747541,41.96073],[-87.747594,41.962243],[-87.746969,41.962908],[-87.749984,41.964163],[-87.754221,41.966826],[-87.760253,41.970209],[-87.76242,41.971016],[-87.763758,41.971767],[-87.764138,41.971663],[-87.764699,41.972282],[-87.773108,41.977021],[-87.773283,41.977906],[-87.773155,41.984754],[-87.771942,41.98476],[-87.771895,41.986868],[-87.778391,41.990225],[-87.787606,41.990201],[-87.787503,41.995556],[-87.791984,41.995524],[-87.792316,41.997332],[-87.793946,41.997326],[-87.793946,42.00097],[-87.79713,42.000948],[-87.797132,42.000013],[-87.799487,41.999993],[-87.79982,42.001537],[-87.806756,42.001513],[-87.806615,42.013535],[-87.813939,42.013349],[-87.813947,42.011529],[-87.829265,42.011318],[-87.830482,42.011137],[-87.850437,42.010634],[-87.850588,42.003675],[-87.847832,42.002592],[-87.848068,42.00188],[-87.848129,42.000789],[-87.848119,41.996191],[-87.873164,41.995481],[-87.873358,41.99535],[-87.884537,41.998231],[-87.884618,42.00512],[-87.885024,42.007233],[-87.885856,42.009631],[-87.903337,42.009071],[-87.902886,42.008958],[-87.903784,42.008929],[-87.904187,42.009044],[-87.90609,42.008986],[-87.906599,42.009223],[-87.90771,42.009195],[-87.90772,42.008927],[-87.921153,42.008449],[-87.938308,42.008126],[-87.940258,42.008313],[-87.939952,41.993489],[-87.920482,41.993894],[-87.920119,41.964804],[-87.920177,41.958173],[-87.91656,41.957655],[-87.914457,41.956816],[-87.91446,41.953544],[-87.908266,41.951859],[-87.905295,41.951347],[-87.897168,41.950645],[-87.892667,41.95072],[-87.892669,41.952138],[-87.893254,41.954715],[-87.893093,41.958094],[-87.889262,41.957982],[-87.884303,41.957534],[-87.883242,41.957241],[-87.880565,41.957123],[-87.880884,41.97309],[-87.872253,41.973073],[-87.86186,41.973367],[-87.861665,41.972998],[-87.86093,41.97234],[-87.859535,41.971579],[-87.859027,41.971475],[-87.857816,41.971671],[-87.856277,41.97244],[-87.855205,41.972473],[-87.85439,41.971831],[-87.854108,41.971232],[-87.854263,41.970497],[-87.855068,41.968677],[-87.855123,41.96811],[-87.854784,41.966708],[-87.854877,41.966001],[-87.855768,41.964505],[-87.8557,41.962628],[-87.858807,41.957452],[-87.85887,41.956785],[-87.858651,41.956167],[-87.85796,41.955346],[-87.847398,41.955766],[-87.847771,41.951684],[-87.854123,41.951336],[-87.855185,41.948788],[-87.855172,41.947942],[-87.853633,41.944787],[-87.852215,41.941122],[-87.85189,41.939432],[-87.851531,41.938848],[-87.849594,41.937294],[-87.82626,41.937758],[-87.825649,41.915814],[-87.825521,41.915429],[-87.82546,41.908553],[-87.805754,41.908912]]]},"properties":{"name":"11","styleUrl":"#poly-F8D0CE-1000-100-nodesc","fill-opacity":0.39215686274509803,"fill":"#f8d0ce","stroke-opacity":1,"stroke":"#f8d0ce","stroke-width":1,"number":"11"}},
{"type":"Feature","geometry":{"type":"Polygon","coordinates":[[[-87.773108,41.977021],[-87.773277,41.977116],[-87.773102,41.97699],[-87.773108,41.977021]]]},"properties":{"name":"11","styleUrl":"#poly-F8D0CE-1000-100-nodesc","fill-opacity":0.39215686274509803,"fill":"#f8d0ce","stroke-opacity":1,"stroke":"#f8d0ce","stroke-width":1,"number":"11"}},
{"type":"Feature","geometry":{"type":"Polygon","coordinates":[[[-87.970938,42.066476],[-87.970885,42.073718],[-87.973299,42.073821],[-87.973282,42.077256],[-87.975704,42.077363],[-87.975675,42.080614],[-87.959981,42.073623],[-87.95952,42.073653],[-87.95631,42.072239],[-87.956269,42.088137],[-87.914902,42.087818],[-87.914872,42.091561],[-87.907666,42.091538],[-87.907922,42.094702],[-87.905877,42.094735],[-87.905871,42.095149],[-87.909104,42.095172],[-87.915395,42.109714],[-87.911111,42.109546],[-87.902596,42.109487],[-87.900972,42.109639],[-87.890158,42.109487],[-87.887897,42.109417],[-87.887895,42.108888],[-87.88496,42.109348],[-87.875502,42.109207],[-87.873255,42.108744],[-87.866435,42.106098],[-87.86393,42.105767],[-87.858798,42.105751],[-87.858806,42.104924],[-87.856548,42.104925],[-87.856595,42.105744],[-87.790249,42.105295],[-87.790359,42.09898],[-87.788735,42.099102],[-87.787148,42.098857],[-87.785627,42.098835],[-87.785085,42.098008],[-87.783065,42.097993],[-87.78303,42.09981],[-87.781808,42.0998],[-87.781818,42.09803],[-87.780622,42.098008],[-87.7807,42.094332],[-87.770674,42.094143],[-87.770817,42.09498],[-87.770701,42.095947],[-87.770807,42.106046],[-87.77028,42.123363],[-87.780369,42.123535],[-87.779858,42.137879],[-87.789731,42.137941],[-87.790056,42.139255],[-87.790073,42.141104],[-87.789825,42.14884],[-87.789528,42.152481],[-87.818392,42.152526],[-87.82467,42.152701],[-87.914431,42.153176],[-87.929711,42.153035],[-87.948851,42.15319],[-87.951618,42.153469],[-87.965477,42.15359],[-88.03944,42.153756],[-88.121551,42.154201],[-88.121626,42.14775],[-88.121854,42.147042],[-88.121701,42.146802],[-88.121582,42.138206],[-88.121686,42.112738],[-88.121558,42.10745],[-88.121714,42.103376],[-88.104748,42.103381],[-88.104734,42.103509],[-88.104225,42.10363],[-88.103274,42.10363],[-88.100997,42.10513],[-88.096846,42.104368],[-88.096279,42.104593],[-88.095328,42.104434],[-88.094171,42.105033],[-88.093722,42.106197],[-88.091849,42.106286],[-88.091119,42.106472],[-88.090132,42.106829],[-88.089874,42.107373],[-88.089432,42.107664],[-88.088467,42.107544],[-88.086955,42.107692],[-88.086055,42.107297],[-88.08531,42.107281],[-88.084816,42.107424],[-88.084477,42.107923],[-88.083917,42.108236],[-88.08259,42.108506],[-88.081374,42.109044],[-88.077864,42.109612],[-88.077919,42.088408],[-88.073018,42.088417],[-88.073019,42.08876],[-88.067385,42.088679],[-88.067299,42.088028],[-88.068044,42.087556],[-88.068053,42.085347],[-88.066842,42.08572],[-88.062237,42.08573],[-88.062242,42.0836],[-88.059518,42.083581],[-88.059572,42.079942],[-88.059458,42.079587],[-88.058833,42.079278],[-88.056958,42.079209],[-88.057069,42.077172],[-88.053772,42.077174],[-88.053446,42.075249],[-88.05288,42.075302],[-88.052885,42.074542],[-88.051809,42.074543],[-88.05204,42.074045],[-88.051999,42.073557],[-88.050536,42.073702],[-88.050402,42.073571],[-88.050369,42.072864],[-88.050129,42.072811],[-88.043773,42.072635],[-88.043759,42.069736],[-88.043921,42.069734],[-88.043925,42.06934],[-88.0438,42.066837],[-87.970938,42.066476]]]},"properties":{"name":"12","styleUrl":"#poly-57AC06-1000-100-nodesc","fill-opacity":0.39215686274509803,"fill":"#57ac06","stroke-opacity":1,"stroke":"#57ac06","stroke-width":1,"number":"12"}},
{"type":"Feature","geometry":{"type":"Polygon","coordinates":[[[-88.121551,42.154201],[-88.238455,42.154257],[-88.238298,42.141975],[-88.23835,42.103123],[-88.238192,42.066993],[-88.248447,42.067081],[-88.263647,42.066881],[-88.263226,42.021959],[-88.263328,42.019945],[-88.262881,41.986386],[-88.232272,41.986965],[-88.231389,41.986654],[-88.228714,41.986713],[-88.228375,41.987039],[-88.227818,41.98705],[-88.203276,41.987459],[-88.169108,41.987739],[-88.145927,41.988224],[-88.076706,41.990903],[-88.069718,41.99105],[-88.051072,41.991925],[-88.049251,41.991866],[-88.031455,41.992535],[-88.03131,42.008287],[-88.030876,42.009436],[-88.030871,42.011327],[-88.030437,42.013015],[-88.031253,42.016177],[-88.031049,42.017291],[-88.031331,42.020993],[-88.031073,42.03947],[-88.030695,42.042951],[-88.030356,42.048495],[-88.030485,42.062647],[-88.03034,42.066737],[-88.0438,42.066837],[-88.043925,42.06934],[-88.043921,42.069734],[-88.043759,42.069736],[-88.043773,42.072635],[-88.050129,42.072811],[-88.050369,42.072864],[-88.050402,42.073571],[-88.050536,42.073702],[-88.051999,42.073557],[-88.05204,42.074045],[-88.051809,42.074543],[-88.052885,42.074542],[-88.05288,42.075302],[-88.053446,42.075249],[-88.053772,42.077174],[-88.057069,42.077172],[-88.056958,42.079209],[-88.058833,42.079278],[-88.059458,42.079587],[-88.059572,42.079942],[-88.059518,42.083581],[-88.062242,42.0836],[-88.062237,42.08573],[-88.066842,42.08572],[-88.068053,42.085347],[-88.068044,42.087556],[-88.067299,42.088028],[-88.067385,42.088679],[-88.073019,42.08876],[-88.073018,42.088417],[-88.077919,42.088408],[-88.077864,42.109612],[-88.081374,42.109044],[-88.08259,42.108506],[-88.083917,42.108236],[-88.084477,42.107923],[-88.084816,42.107424],[-88.08531,42.107281],[-88.086055,42.107297],[-88.086955,42.107692],[-88.088467,42.107544],[-88.089432,42.107664],[-88.089874,42.107373],[-88.090132,42.106829],[-88.091119,42.106472],[-88.091849,42.106286],[-88.093722,42.106197],[-88.094171,42.105033],[-88.095328,42.104434],[-88.096279,42.104593],[-88.096846,42.104368],[-88.100997,42.10513],[-88.103274,42.10363],[-88.104225,42.10363],[-88.104734,42.103509],[-88.104748,42.103381],[-88.121714,42.103376],[-88.121558,42.10745],[-88.121686,42.112738],[-88.121582,42.138206],[-88.121701,42.146802],[-88.121854,42.147042],[-88.121626,42.14775],[-88.121551,42.154201]]]},"properties":{"name":"13","styleUrl":"#poly-F0C43E-1000-100-nodesc","fill-opacity":0.39215686274509803,"fill":"#f0c43e","stroke-opacity":1,"stroke":"#f0c43e","stroke-width":1,"number":"13"}},
{"type":"Feature","geometry":{"type":"Polygon","coordinates":[[[-87.667298,41.896082],[-87.666204,41.859615],[-87.68584,41.859374],[-87.685453,41.844846],[-87.685113,41.838237],[-87.687266,41.837589],[-87.687623,41.837618],[-87.68761,41.837146],[-87.687459,41.83584],[-87.687414,41.832043],[-87.685082,41.832102],[-87.68468,41.81752],[-87.692039,41.817414],[-87.691969,41.815174],[-87.691353,41.815185],[-87.691211,41.810131],[-87.693044,41.810102],[-87.692988,41.808309],[-87.690552,41.808349],[-87.690486,41.806576],[-87.684377,41.806622],[-87.684194,41.799718],[-87.683632,41.799723],[-87.683609,41.798835],[-87.679611,41.798865],[-87.679647,41.801176],[-87.664782,41.801326],[-87.664873,41.804972],[-87.662449,41.805003],[-87.662443,41.804783],[-87.655156,41.804845],[-87.655405,41.818517],[-87.655876,41.820106],[-87.65579,41.821248],[-87.655527,41.821863],[-87.65554,41.822693],[-87.655986,41.823324],[-87.655958,41.823719],[-87.655586,41.824388],[-87.655734,41.830628],[-87.657332,41.830609],[-87.657377,41.831238],[-87.657595,41.831497],[-87.659685,41.833675],[-87.661717,41.835385],[-87.663067,41.836928],[-87.663236,41.83762],[-87.664366,41.839383],[-87.664689,41.840849],[-87.664989,41.841469],[-87.664957,41.841854],[-87.664337,41.842708],[-87.664455,41.844625],[-87.663155,41.844693],[-87.661552,41.845449],[-87.658049,41.847732],[-87.657807,41.847513],[-87.656124,41.84794],[-87.65315,41.847616],[-87.6504,41.848025],[-87.646479,41.849198],[-87.646435,41.850516],[-87.646501,41.852655],[-87.648138,41.852621],[-87.6483,41.85807],[-87.647627,41.858083],[-87.647679,41.859906],[-87.656485,41.859773],[-87.656906,41.872971],[-87.656907,41.873242],[-87.656782,41.873244],[-87.656773,41.874675],[-87.656977,41.875349],[-87.657149,41.88166],[-87.656696,41.881667],[-87.656697,41.883388],[-87.656911,41.888878],[-87.657353,41.888952],[-87.657493,41.894938],[-87.657391,41.895235],[-87.659038,41.896917],[-87.66022,41.899353],[-87.660967,41.899837],[-87.667398,41.899716],[-87.667436,41.90105],[-87.672327,41.900967],[-87.67234,41.901459],[-87.674772,41.901417],[-87.674811,41.902737],[-87.682137,41.90262],[-87.682146,41.903115],[-87.687033,41.903024],[-87.687648,41.924909],[-87.700411,41.924787],[-87.705781,41.928081],[-87.707592,41.927975],[-87.707901,41.928373],[-87.710241,41.928346],[-87.710223,41.927894],[-87.710857,41.927887],[-87.710819,41.926511],[-87.712163,41.926489],[-87.712208,41.928324],[-87.71465,41.928294],[-87.714665,41.92877],[-87.717109,41.928719],[-87.717094,41.928263],[-87.736719,41.927999],[-87.736818,41.928494],[-87.741553,41.92844],[-87.742004,41.928428],[-87.741995,41.928259],[-87.746464,41.928204],[-87.746451,41.927917],[-87.766125,41.927636],[-87.765812,41.918771],[-87.755944,41.916942],[-87.75568,41.91],[-87.755802,41.909509],[-87.751041,41.909571],[-87.751001,41.907751],[-87.748548,41.90777],[-87.748508,41.905969],[-87.746042,41.905996],[-87.745813,41.895012],[-87.726086,41.895376],[-87.726146,41.897209],[-87.724922,41.897214],[-87.724977,41.899043],[-87.712781,41.899148],[-87.712789,41.900751],[-87.71189,41.900061],[-87.71139,41.900204],[-87.706652,41.898319],[-87.706562,41.895561],[-87.667298,41.896082]]]},"properties":{"name":"14","styleUrl":"#poly-2EBB64-1000-100-nodesc","fill-opacity":0.39215686274509803,"fill":"#2ebb64","stroke-opacity":1,"stroke":"#2ebb64","stroke-width":1,"number":"14"}},
{"type":"Feature","geometry":{"type":"Polygon","coordinates":[[[-87.952239,41.693753],[-87.955678,41.693032],[-87.958195,41.691157],[-87.961092,41.689881],[-87.96668,41.68675],[-87.969336,41.686768],[-87.971632,41.687259],[-87.975266,41.686541],[-87.97627,41.686695],[-87.977976,41.687239],[-87.979172,41.68734],[-87.980913,41.687042],[-87.981665,41.686617],[-87.982158,41.686086],[-88.004005,41.685737],[-88.008294,41.685515],[-88.012506,41.685563],[-88.028979,41.68525],[-88.027694,41.641514],[-87.911936,41.643941],[-87.910625,41.60161],[-87.910365,41.59932],[-87.910483,41.594698],[-87.90939,41.563252],[-87.909384,41.556889],[-87.898441,41.556837],[-87.895287,41.557066],[-87.886535,41.55709],[-87.836593,41.557979],[-87.792799,41.558548],[-87.792138,41.538317],[-87.790372,41.539658],[-87.790329,41.538412],[-87.790422,41.513518],[-87.790309,41.469854],[-87.728901,41.469713],[-87.644985,41.469776],[-87.644928,41.476997],[-87.634641,41.477064],[-87.63478,41.482566],[-87.634114,41.484244],[-87.634515,41.498975],[-87.596866,41.498991],[-87.597045,41.515641],[-87.595369,41.515624],[-87.595369,41.51589],[-87.597048,41.515872],[-87.597095,41.520833],[-87.596936,41.520833],[-87.597149,41.525386],[-87.597401,41.549931],[-87.61208,41.54976],[-87.612257,41.557448],[-87.6213,41.557546],[-87.625772,41.557343],[-87.626665,41.557442],[-87.626654,41.560725],[-87.631706,41.560741],[-87.631712,41.560275],[-87.636119,41.560254],[-87.636085,41.557407],[-87.640951,41.557382],[-87.640985,41.549678],[-87.63605,41.54965],[-87.63595,41.538786],[-87.638043,41.538772],[-87.649253,41.538771],[-87.650649,41.544279],[-87.655058,41.544225],[-87.65526,41.546087],[-87.665008,41.546127],[-87.665123,41.549727],[-87.674318,41.549953],[-87.674724,41.549642],[-87.674901,41.550766],[-87.674853,41.557213],[-87.67468,41.55857],[-87.675027,41.571107],[-87.67486,41.575301],[-87.675114,41.579496],[-87.675316,41.589972],[-87.675325,41.59194],[-87.675055,41.595304],[-87.675244,41.601212],[-87.679986,41.601448],[-87.680138,41.60299],[-87.6777,41.602941],[-87.677704,41.603643],[-87.679012,41.603754],[-87.679018,41.604564],[-87.680189,41.604588],[-87.680209,41.608184],[-87.679879,41.608193],[-87.679871,41.60873],[-87.680227,41.615503],[-87.685064,41.615454],[-87.685081,41.615734],[-87.690766,41.615567],[-87.686574,41.61877],[-87.693216,41.618703],[-87.693327,41.622368],[-87.707877,41.622066],[-87.707795,41.620212],[-87.715042,41.620078],[-87.714969,41.618275],[-87.722143,41.618029],[-87.731658,41.610122],[-87.731459,41.603356],[-87.794166,41.602292],[-87.793928,41.595804],[-87.79802,41.595787],[-87.798076,41.59498],[-87.799357,41.594934],[-87.799326,41.594081],[-87.803777,41.593981],[-87.803748,41.593184],[-87.805891,41.59313],[-87.806924,41.592509],[-87.809619,41.591676],[-87.813337,41.5916],[-87.813427,41.594177],[-87.815034,41.594145],[-87.816063,41.593839],[-87.816878,41.593805],[-87.818156,41.59418],[-87.821527,41.594138],[-87.822906,41.593709],[-87.825471,41.59366],[-87.826061,41.593746],[-87.827309,41.594344],[-87.827952,41.594474],[-87.847668,41.594177],[-87.848848,41.594339],[-87.85267,41.594338],[-87.853725,41.623241],[-87.851283,41.623184],[-87.834093,41.623612],[-87.834053,41.62595],[-87.834376,41.630865],[-87.834287,41.632018],[-87.834506,41.636533],[-87.834378,41.637474],[-87.834533,41.638121],[-87.8347,41.645405],[-87.853676,41.645022],[-87.860763,41.64503],[-87.861761,41.644843],[-87.871692,41.644837],[-87.883069,41.644494],[-87.884595,41.644297],[-87.892627,41.644282],[-87.893335,41.666119],[-87.95155,41.664977],[-87.951615,41.671944],[-87.95187,41.672288],[-87.951938,41.672734],[-87.952042,41.676224],[-87.951899,41.67782],[-87.952276,41.686906],[-87.952239,41.693753]]]},"properties":{"name":"15","styleUrl":"#poly-6D08B1-1000-100-nodesc","fill-opacity":0.39215686274509803,"fill":"#6d08b1","stroke-opacity":1,"stroke":"#6d08b1","stroke-width":1,"number":"15"}},
{"type":"Feature","geometry":{"type":"Polygon","coordinates":[[[-87.741364,41.749155],[-87.74124,41.745629],[-87.740981,41.738194],[-87.726416,41.738442],[-87.726472,41.740272],[-87.725265,41.740292],[-87.725326,41.742123],[-87.721685,41.742187],[-87.721918,41.74951],[-87.711896,41.749663],[-87.712005,41.753316],[-87.702505,41.753459],[-87.702819,41.764397],[-87.693035,41.764548],[-87.693212,41.771832],[-87.691993,41.771849],[-87.692014,41.772805],[-87.692037,41.773651],[-87.692645,41.77364],[-87.692692,41.775442],[-87.693304,41.775435],[-87.693398,41.779124],[-87.688529,41.779196],[-87.688579,41.781019],[-87.687363,41.781038],[-87.687456,41.78469],[-87.6838,41.784742],[-87.683748,41.782919],[-87.679976,41.782837],[-87.680208,41.791354],[-87.67994,41.793496],[-87.678812,41.793508],[-87.678821,41.793876],[-87.676741,41.793898],[-87.676818,41.796643],[-87.674388,41.796671],[-87.674513,41.801241],[-87.679647,41.801176],[-87.679611,41.798865],[-87.683609,41.798835],[-87.683632,41.799723],[-87.684194,41.799718],[-87.684377,41.806622],[-87.690486,41.806576],[-87.690552,41.808349],[-87.692988,41.808309],[-87.693044,41.810102],[-87.691211,41.810131],[-87.691353,41.815185],[-87.691969,41.815174],[-87.692039,41.817414],[-87.68468,41.81752],[-87.685082,41.832102],[-87.687414,41.832043],[-87.687459,41.83584],[-87.68761,41.837146],[-87.687623,41.837618],[-87.687266,41.837589],[-87.685113,41.838237],[-87.685453,41.844846],[-87.68584,41.859374],[-87.666204,41.859615],[-87.667298,41.896082],[-87.704658,41.89558],[-87.70409,41.895153],[-87.703939,41.890345],[-87.702758,41.890358],[-87.702748,41.89012],[-87.701876,41.889957],[-87.701486,41.889583],[-87.700794,41.866464],[-87.695913,41.866519],[-87.695575,41.85556],[-87.709019,41.855395],[-87.708963,41.853568],[-87.710184,41.853557],[-87.710134,41.851714],[-87.712553,41.85132],[-87.712588,41.851698],[-87.72355,41.851492],[-87.723594,41.851668],[-87.728257,41.851625],[-87.739429,41.851359],[-87.738914,41.837145],[-87.739158,41.836726],[-87.739168,41.83633],[-87.738816,41.832928],[-87.753596,41.832727],[-87.75359,41.832472],[-87.754495,41.832384],[-87.761771,41.832298],[-87.763415,41.832535],[-87.762544,41.800066],[-87.768626,41.799967],[-87.768367,41.794805],[-87.73073,41.800579],[-87.730726,41.800437],[-87.729499,41.800484],[-87.729399,41.796827],[-87.728174,41.796839],[-87.728214,41.798318],[-87.723375,41.80037],[-87.723379,41.800554],[-87.722777,41.800582],[-87.722102,41.800577],[-87.722051,41.798739],[-87.716585,41.798817],[-87.716531,41.796989],[-87.713505,41.797032],[-87.713001,41.780649],[-87.712903,41.778839],[-87.712732,41.77884],[-87.712709,41.778626],[-87.712555,41.771531],[-87.71273,41.77153],[-87.712724,41.770622],[-87.712329,41.756915],[-87.722197,41.756846],[-87.722046,41.753382],[-87.726884,41.753218],[-87.726834,41.74942],[-87.741364,41.749155]]]},"properties":{"name":"16","styleUrl":"#poly-49E43A-1000-100-nodesc","fill-opacity":0.39215686274509803,"fill":"#49e43a","stroke-opacity":1,"stroke":"#49e43a","stroke-width":1,"number":"16"}},
{"type":"Feature","geometry":{"type":"Polygon","coordinates":[[[-87.644928,41.476997],[-87.644958,41.470186],[-87.644985,41.469776],[-87.641399,41.469771],[-87.525711,41.470291],[-87.525544,41.475255],[-87.525613,41.528352],[-87.525288,41.573846],[-87.525438,41.587003],[-87.525388,41.593539],[-87.525263,41.59371],[-87.525202,41.595593],[-87.525087,41.635475],[-87.524749,41.656745],[-87.524819,41.686946],[-87.524474,41.703311],[-87.524171,41.708322],[-87.524326,41.718329],[-87.524169,41.721859],[-87.523667,41.759915],[-87.524451,41.760043],[-87.540745,41.757443],[-87.540491,41.757185],[-87.542044,41.756223],[-87.544013,41.753556],[-87.543369,41.752367],[-87.543068,41.752113],[-87.545016,41.752198],[-87.546847,41.75167],[-87.54807,41.751985],[-87.549652,41.753487],[-87.550978,41.752693],[-87.551601,41.753266],[-87.552902,41.752494],[-87.552294,41.751927],[-87.555938,41.751879],[-87.555928,41.751425],[-87.565016,41.751311],[-87.565025,41.751754],[-87.566239,41.751736],[-87.566179,41.748103],[-87.567399,41.748085],[-87.567355,41.744844],[-87.567348,41.744454],[-87.565527,41.744477],[-87.565493,41.742661],[-87.566103,41.742653],[-87.566034,41.737441],[-87.565707,41.737206],[-87.566003,41.737201],[-87.56592,41.73355],[-87.572596,41.733459],[-87.572503,41.72981],[-87.575541,41.729769],[-87.575361,41.722477],[-87.585133,41.722347],[-87.584877,41.711142],[-87.585043,41.70994],[-87.585508,41.708686],[-87.586057,41.707773],[-87.592208,41.707664],[-87.59188,41.706522],[-87.591787,41.705359],[-87.591918,41.704132],[-87.592257,41.70301],[-87.594584,41.698939],[-87.594856,41.69877],[-87.601726,41.685845],[-87.60196,41.684152],[-87.601618,41.67597],[-87.60103,41.674347],[-87.600201,41.673099],[-87.580625,41.650288],[-87.579166,41.647622],[-87.578764,41.646163],[-87.578594,41.644738],[-87.617233,41.64459],[-87.617212,41.629909],[-87.65103,41.629789],[-87.656346,41.629905],[-87.65603,41.628384],[-87.656029,41.626267],[-87.665725,41.626292],[-87.665702,41.622656],[-87.675476,41.622678],[-87.680299,41.622844],[-87.68023,41.619242],[-87.685153,41.61916],[-87.685064,41.615454],[-87.680227,41.615503],[-87.679871,41.60873],[-87.679879,41.608193],[-87.680209,41.608184],[-87.680189,41.604588],[-87.679018,41.604564],[-87.679012,41.603754],[-87.677704,41.603643],[-87.6777,41.602941],[-87.680138,41.60299],[-87.679986,41.601448],[-87.675244,41.601212],[-87.675055,41.595304],[-87.675325,41.59194],[-87.675316,41.589972],[-87.675114,41.579496],[-87.67486,41.575301],[-87.675027,41.571107],[-87.67468,41.55857],[-87.674853,41.557213],[-87.674901,41.550766],[-87.674724,41.549642],[-87.674318,41.549953],[-87.665123,41.549727],[-87.665008,41.546127],[-87.65526,41.546087],[-87.655058,41.544225],[-87.650649,41.544279],[-87.649253,41.538771],[-87.638043,41.538772],[-87.63595,41.538786],[-87.63605,41.54965],[-87.640985,41.549678],[-87.640951,41.557382],[-87.636085,41.557407],[-87.636119,41.560254],[-87.631712,41.560275],[-87.631706,41.560741],[-87.626654,41.560725],[-87.626665,41.557442],[-87.625772,41.557343],[-87.6213,41.557546],[-87.612257,41.557448],[-87.61208,41.54976],[-87.597401,41.549931],[-87.597149,41.525386],[-87.596936,41.520833],[-87.597095,41.520833],[-87.597048,41.515872],[-87.595369,41.51589],[-87.595369,41.515624],[-87.597045,41.515641],[-87.596866,41.498991],[-87.634515,41.498975],[-87.634114,41.484244],[-87.63478,41.482566],[-87.634641,41.477064],[-87.644928,41.476997]]]},"properties":{"name":"17","styleUrl":"#poly-5A86B9-1000-100-nodesc","fill-opacity":0.39215686274509803,"fill":"#5a86b9","stroke-opacity":1,"stroke":"#5a86b9","stroke-width":1,"number":"17"}},
{"type":"Feature","geometry":{"type":"Polygon","coordinates":[[[-88.031455,41.992535],[-88.015314,41.992468],[-87.939952,41.993489],[-87.940258,42.008313],[-87.938308,42.008126],[-87.921153,42.008449],[-87.90772,42.008927],[-87.90771,42.009195],[-87.906599,42.009223],[-87.90609,42.008986],[-87.904187,42.009044],[-87.903784,42.008929],[-87.902886,42.008958],[-87.903337,42.009071],[-87.885856,42.009631],[-87.885024,42.007233],[-87.884618,42.00512],[-87.884537,41.998231],[-87.873358,41.99535],[-87.873164,41.995481],[-87.848119,41.996191],[-87.848129,42.000789],[-87.848068,42.00188],[-87.847832,42.002592],[-87.850588,42.003675],[-87.850437,42.010634],[-87.855286,42.010462],[-87.85524,42.023423],[-87.85785,42.024899],[-87.840951,42.025474],[-87.806451,42.026287],[-87.805926,42.064847],[-87.805571,42.069384],[-87.805502,42.072839],[-87.842477,42.07308],[-87.842645,42.074843],[-87.842565,42.079122],[-87.844533,42.080127],[-87.845371,42.080136],[-87.846053,42.080473],[-87.849231,42.080364],[-87.849261,42.082516],[-87.851598,42.08006],[-87.859065,42.080049],[-87.858922,42.092911],[-87.858751,42.094624],[-87.858899,42.095028],[-87.858798,42.105751],[-87.86393,42.105767],[-87.866435,42.106098],[-87.873255,42.108744],[-87.875967,42.109243],[-87.88496,42.109348],[-87.887895,42.108888],[-87.887897,42.109417],[-87.890158,42.109487],[-87.900972,42.109639],[-87.902596,42.109487],[-87.911111,42.109546],[-87.915395,42.109714],[-87.909104,42.095172],[-87.905871,42.095149],[-87.905877,42.094735],[-87.907922,42.094702],[-87.907666,42.091538],[-87.914872,42.091561],[-87.914902,42.087818],[-87.956269,42.088137],[-87.95631,42.072239],[-87.95952,42.073653],[-87.959981,42.073623],[-87.975675,42.080614],[-87.975704,42.077363],[-87.973282,42.077256],[-87.973299,42.073821],[-87.970885,42.073718],[-87.970938,42.066476],[-88.03034,42.066737],[-88.030485,42.062647],[-88.030356,42.048495],[-88.030695,42.042951],[-88.031073,42.03947],[-88.031331,42.020993],[-88.031049,42.017291],[-88.031253,42.016177],[-88.030437,42.013015],[-88.030871,42.011327],[-88.030876,42.009436],[-88.03131,42.008287],[-88.031455,41.992535]]]},"properties":{"name":"18","styleUrl":"#poly-F7C60D-1000-100-nodesc","fill-opacity":0.39215686274509803,"fill":"#f7c60d","stroke-opacity":1,"stroke":"#f7c60d","stroke-width":1,"number":"18"}},
{"type":"Feature","geometry":{"type":"Polygon","coordinates":[[[-87.892627,41.644282],[-87.892509,41.644283],[-87.884595,41.644297],[-87.883069,41.644494],[-87.871692,41.644837],[-87.861761,41.644843],[-87.860763,41.64503],[-87.853676,41.645022],[-87.829588,41.645505],[-87.829636,41.649219],[-87.82989,41.652812],[-87.805683,41.653301],[-87.805981,41.660541],[-87.75898,41.661371],[-87.75875,41.661384],[-87.758748,41.66209],[-87.75814,41.662114],[-87.758114,41.661394],[-87.74974,41.661549],[-87.748342,41.66063],[-87.738381,41.65547],[-87.73839,41.655746],[-87.735097,41.654457],[-87.731956,41.653464],[-87.725849,41.652215],[-87.718909,41.651712],[-87.704173,41.651956],[-87.704155,41.651441],[-87.699307,41.651439],[-87.689592,41.651921],[-87.689787,41.651699],[-87.689582,41.650921],[-87.691976,41.650878],[-87.691884,41.647965],[-87.669593,41.648247],[-87.669055,41.648981],[-87.667814,41.649587],[-87.663896,41.650389],[-87.659904,41.652051],[-87.656744,41.652541],[-87.654703,41.653185],[-87.653518,41.653908],[-87.651887,41.655268],[-87.65057,41.655777],[-87.656602,41.655504],[-87.660614,41.655115],[-87.660748,41.658592],[-87.662105,41.658152],[-87.662578,41.662862],[-87.662711,41.662859],[-87.662778,41.664421],[-87.662761,41.666571],[-87.662579,41.666574],[-87.6625,41.667793],[-87.659553,41.670327],[-87.661157,41.670338],[-87.661371,41.677552],[-87.666576,41.67745],[-87.667154,41.675842],[-87.668555,41.676135],[-87.667856,41.677427],[-87.673235,41.67733],[-87.673022,41.679131],[-87.673719,41.679181],[-87.673059,41.684613],[-87.67184,41.684635],[-87.671438,41.687927],[-87.67017,41.687848],[-87.666595,41.686706],[-87.664078,41.691057],[-87.659328,41.697852],[-87.657242,41.703544],[-87.661599,41.713991],[-87.65977,41.714012],[-87.663035,41.718395],[-87.663458,41.721209],[-87.665723,41.725621],[-87.667442,41.728459],[-87.668222,41.730185],[-87.673096,41.735658],[-87.806659,41.733467],[-87.817546,41.733127],[-87.871786,41.732087],[-87.876484,41.731871],[-87.876678,41.732006],[-87.879285,41.732025],[-87.88086,41.731739],[-87.88653,41.731641],[-87.885859,41.732132],[-87.886051,41.736264],[-87.887108,41.735735],[-87.889797,41.732663],[-87.890588,41.732559],[-87.890556,41.731812],[-87.890682,41.731683],[-87.900432,41.731389],[-87.901267,41.731454],[-87.901217,41.732134],[-87.902567,41.732135],[-87.904413,41.732027],[-87.904773,41.731396],[-87.905977,41.731182],[-87.906733,41.731303],[-87.914889,41.731143],[-87.91427,41.716606],[-87.915138,41.716595],[-87.917015,41.71615],[-87.918213,41.716581],[-87.920464,41.716518],[-87.921538,41.716246],[-87.924923,41.713003],[-87.925616,41.712761],[-87.927245,41.712642],[-87.930292,41.710072],[-87.93353,41.70886],[-87.934232,41.708465],[-87.935016,41.707633],[-87.93584,41.706098],[-87.936767,41.705315],[-87.93804,41.704598],[-87.940853,41.703543],[-87.941789,41.703043],[-87.942194,41.702473],[-87.941977,41.701253],[-87.942356,41.69887],[-87.943589,41.698217],[-87.947851,41.69514],[-87.952239,41.693753],[-87.952276,41.686906],[-87.951899,41.67782],[-87.952042,41.676224],[-87.951938,41.672734],[-87.95187,41.672288],[-87.951615,41.671944],[-87.95155,41.664977],[-87.893335,41.666119],[-87.892698,41.645934],[-87.892627,41.644282]]]},"properties":{"name":"19","styleUrl":"#poly-52291E-1000-100-nodesc","fill-opacity":0.39215686274509803,"fill":"#52291e","stroke-opacity":1,"stroke":"#52291e","stroke-width":1,"number":"19"}},
{"type":"Feature","geometry":{"type":"Polygon","coordinates":[[[-87.628228,41.897528],[-87.626878,41.897548],[-87.626909,41.898353],[-87.621862,41.898427],[-87.621877,41.899252],[-87.617983,41.899318],[-87.619162,41.901065],[-87.619668,41.901433],[-87.622666,41.901929],[-87.622534,41.902412],[-87.622724,41.902923],[-87.624031,41.904038],[-87.625276,41.909595],[-87.625224,41.910007],[-87.624723,41.910682],[-87.624612,41.911313],[-87.622965,41.912635],[-87.620877,41.913063],[-87.620317,41.913639],[-87.620207,41.91416],[-87.621626,41.913623],[-87.622603,41.913623],[-87.623081,41.913794],[-87.624462,41.914492],[-87.62649,41.915954],[-87.626798,41.916338],[-87.626717,41.916453],[-87.627753,41.917508],[-87.627738,41.917706],[-87.62748,41.917881],[-87.628516,41.919166],[-87.628067,41.919408],[-87.628963,41.920666],[-87.62897,41.920792],[-87.628551,41.921011],[-87.629366,41.922291],[-87.629277,41.922554],[-87.628682,41.922944],[-87.629497,41.924169],[-87.629555,41.924405],[-87.629305,41.924624],[-87.629635,41.925201],[-87.629848,41.926041],[-87.62962,41.926134],[-87.629605,41.926661],[-87.630706,41.928166],[-87.631095,41.929204],[-87.63116,41.930379],[-87.630769,41.931999],[-87.631403,41.932846],[-87.630746,41.933108],[-87.63054,41.933519],[-87.631818,41.935414],[-87.632316,41.937056],[-87.633447,41.938753],[-87.63402,41.940362],[-87.633953,41.941284],[-87.634409,41.941572],[-87.634023,41.942486],[-87.633548,41.942168],[-87.633305,41.942388],[-87.63376,41.943145],[-87.635215,41.94442],[-87.637251,41.946644],[-87.637846,41.947468],[-87.638852,41.949484],[-87.640563,41.953284],[-87.64115,41.955035],[-87.641722,41.958577],[-87.641544,41.960147],[-87.64233,41.961212],[-87.642043,41.961997],[-87.641417,41.962321],[-87.63615,41.962835],[-87.63554,41.962577],[-87.635429,41.962275],[-87.635798,41.961621],[-87.636482,41.960908],[-87.637336,41.960546],[-87.638874,41.960332],[-87.64008,41.960794],[-87.640661,41.960855],[-87.640896,41.960668],[-87.640941,41.960394],[-87.640573,41.959916],[-87.639029,41.959537],[-87.637535,41.959503],[-87.636535,41.959755],[-87.635593,41.960293],[-87.63443,41.961357],[-87.631839,41.962586],[-87.631471,41.962932],[-87.631397,41.96314],[-87.631977,41.965249],[-87.636442,41.965531],[-87.639208,41.966213],[-87.640502,41.966883],[-87.642554,41.968257],[-87.643826,41.969404],[-87.644848,41.970618],[-87.645752,41.97209],[-87.646317,41.973589],[-87.646492,41.977141],[-87.646786,41.977465],[-87.649702,41.979047],[-87.650377,41.979605],[-87.650232,41.979729],[-87.650682,41.980692],[-87.650729,41.982933],[-87.650484,41.984132],[-87.650129,41.984952],[-87.654131,41.989066],[-87.654389,41.99021],[-87.654247,41.992571],[-87.654755,41.992857],[-87.654806,41.993192],[-87.654438,41.994103],[-87.654482,41.9944],[-87.654747,41.994576],[-87.654687,41.995322],[-87.654842,41.995471],[-87.654724,41.996376],[-87.654466,41.996497],[-87.654519,41.997286],[-87.654731,41.997292],[-87.654763,41.99819],[-87.670629,41.998083],[-87.670237,41.996396],[-87.670004,41.98992],[-87.66979,41.987932],[-87.668435,41.981678],[-87.668278,41.97974],[-87.668423,41.976199],[-87.674924,41.976102],[-87.674853,41.973364],[-87.684199,41.973136],[-87.684108,41.970511],[-87.688971,41.97042],[-87.688913,41.968623],[-87.701099,41.968522],[-87.695591,41.963082],[-87.6948,41.961281],[-87.69181,41.9613],[-87.691758,41.959478],[-87.68742,41.959515],[-87.687377,41.958461],[-87.686175,41.958437],[-87.6861,41.955887],[-87.680029,41.955971],[-87.679559,41.955302],[-87.678795,41.955312],[-87.67876,41.95417],[-87.67145,41.954264],[-87.671346,41.94879],[-87.668913,41.948822],[-87.668668,41.939705],[-87.658975,41.939846],[-87.658716,41.932564],[-87.644892,41.932809],[-87.644692,41.932049],[-87.643584,41.930173],[-87.642872,41.929629],[-87.638286,41.921977],[-87.638943,41.921969],[-87.6386,41.91118],[-87.633236,41.911172],[-87.633127,41.907704],[-87.632975,41.907718],[-87.632684,41.897964],[-87.629821,41.897997],[-87.629833,41.898452],[-87.628392,41.898574],[-87.628254,41.898477],[-87.628228,41.897528]]]},"properties":{"name":"20","styleUrl":"#poly-468B15-1000-100-nodesc","fill-opacity":0.39215686274509803,"fill":"#468b15","stroke-opacity":1,"stroke":"#468b15","stroke-width":1,"number":"20"}}
]}